id,title,sthalam,common_name,city,district,state,country,lat,lng,cluster_group,subcluster_group,marker_color,marker_icon,tooltip,popup_title,popup_html,audio_url,image_url,divyadesam_link
1,Thiruvarangam (Sri Rangam) - Sri Ranganathaswamy Temple,Thiruvarangam,Srirangam,Tiruchirappalli,Tiruchirappalli,Tamil Nadu,India,10.86246937,78.68993659,Chola Nadu (North),Trichy Cluster,red,temple,Srirangam • Tiruchirappalli,Thiruvarangam (Sri Rangam) - Sri Ranganathaswamy Temple,"<h3>Thiruvarangam (Sri Rangam) - Sri Ranganathaswamy Temple</h3><div><b>Location:</b> Tiruchirappalli, Tiruchirappalli, Tamil Nadu, India</div><div><b>Cluster:</b> Chola Nadu (North) / Trichy Cluster</div>",audio/1.Srirangam.m4a,,
2,Thirukkozhi (Uraiyur) - Sri Azhagiya Manavala Perumal Temple,Thirukkozhi,Uraiyur,Tiruchirappalli,Tiruchirappalli,Tamil Nadu,India,10.82734785,78.67361671,Chola Nadu (North),Trichy Cluster,red,temple,Uraiyur • Tiruchirappalli,Thirukkozhi (Uraiyur) - Sri Azhagiya Manavala Perumal Temple,"<h3>Thirukkozhi (Uraiyur) - Sri Azhagiya Manavala Perumal Temple</h3><div><b>Location:</b> Tiruchirappalli, Tiruchirappalli, Tamil Nadu, India</div><div><b>Cluster:</b> Chola Nadu (North) / Trichy Cluster</div>",audio/2.Uraiyur.m4a,,
3,Thirukkarambanoor - Sri Purushothaman Perumal Temple,Thirukkarambanoor,Uttamar Kovil,Tiruchirappalli,Tiruchirappalli,Tamil Nadu,India,10.87735671,78.70308408,Chola Nadu (North),Trichy Cluster,red,temple,Uttamar Kovil • Tiruchirappalli,Thirukkarambanoor - Sri Purushothaman Perumal Temple,"<h3>Thirukkarambanoor - Sri Purushothaman Perumal Temple</h3><div><b>Location:</b> Tiruchirappalli, Tiruchirappalli, Tamil Nadu, India</div><div><b>Cluster:</b> Chola Nadu (North) / Trichy Cluster</div>",audio/3.Thirukarambanur.m4a,,
4,Thiruvellarai - Sri Pundarikashan Perumal Temple,Thiruvellarai,Thiruvellarai,Tiruchirappalli,Tiruchirappalli,Tamil Nadu,India,10.95679064,78.66765015,Chola Nadu (North),Trichy Cluster,red,temple,Thiruvellarai • Tiruchirappalli,Thiruvellarai - Sri Pundarikashan Perumal Temple,"<h3>Thiruvellarai - Sri Pundarikashan Perumal Temple</h3><div><b>Location:</b> Tiruchirappalli, Tiruchirappalli, Tamil Nadu, India</div><div><b>Cluster:</b> Chola Nadu (North) / Trichy Cluster</div>",audio/4.Thiruvellarai.m4a,,
5,Thiru Anbil - Sri Vadivazhagiya Nambi Perumal Temple,Thiru Anbil,Anbil,Tiruchirappalli,Tiruchirappalli,Tamil Nadu,India,10.86797598,78.88212328,Chola Nadu (North),Trichy Cluster,red,temple,Anbil • Tiruchirappalli,Thiru Anbil - Sri Vadivazhagiya Nambi Perumal Temple,"<h3>Thiru Anbil - Sri Vadivazhagiya Nambi Perumal Temple</h3><div><b>Location:</b> Tiruchirappalli, Tiruchirappalli, Tamil Nadu, India</div><div><b>Cluster:</b> Chola Nadu (North) / Trichy Cluster</div>",audio/5.Thiruanbil.m4a,,
6,Thirupper Nagar - Sri Appakkudathaan Perumal Temple,Thirupper Nagar,Koviladi,Lalgudi,Tiruchirappalli,Tamil Nadu,India,10.83956955,78.88910999,Chola Nadu (North),Trichy Cluster,red,temple,Koviladi • Lalgudi,Thirupper Nagar - Sri Appakkudathaan Perumal Temple,"<h3>Thirupper Nagar - Sri Appakkudathaan Perumal Temple</h3><div><b>Location:</b> Lalgudi, Tiruchirappalli, Tamil Nadu, India</div><div><b>Cluster:</b> Chola Nadu (North) / Trichy Cluster</div>",audio/6.Thirupeernagar.m4a,,
7,Thiru Thanjaimaamani Koil - Sri Neelamega Perumal Temple,Thanjai Maamani Koil,Thanjai Maamani Koil,Thanjavur,Thanjavur,Tamil Nadu,India,10.81797774,79.13614109,Chola Nadu (South),Thanjavur–Kumbakonam Cluster,orange,temple,Thanjai Maamani Koil • Thanjavur,Thiru Thanjaimaamani Koil - Sri Neelamega Perumal Temple,"<h3>Thiru Thanjaimaamani Koil - Sri Neelamega Perumal Temple</h3><div><b>Location:</b> Thanjavur, Thanjavur, Tamil Nadu, India</div><div><b>Cluster:</b> Chola Nadu (South) / Thanjavur–Kumbakonam Cluster</div>",audio/7.Thirukkandiyur.m4a,,
8,Thirukkandiyur - Sri Hara Saabha Vimocchana Perumal Temple,Thirukkandiyur,Kandiyur,Thanjavur,Thanjavur,Tamil Nadu,India,10.86043949,79.10856306,Chola Nadu (South),Thanjavur–Kumbakonam Cluster,orange,temple,Kandiyur • Thanjavur,Thirukkandiyur - Sri Hara Saabha Vimocchana Perumal Temple,"<h3>Thirukkandiyur - Sri Hara Saabha Vimocchana Perumal Temple</h3><div><b>Location:</b> Thanjavur, Thanjavur, Tamil Nadu, India</div><div><b>Cluster:</b> Chola Nadu (South) / Thanjavur–Kumbakonam Cluster</div>",audio/8.Thirukkoodalur.m4a,,
9,Thirukkoodaloor - Sri Aaduthurai Perumal Temple,Thirukkoodaloor,Koodaloor,Papanasam,Thanjavur,Tamil Nadu,India,10.92544821,79.20331611,Chola Nadu (South),Thanjavur–Kumbakonam Cluster,orange,temple,Koodaloor • Papanasam,Thirukkoodaloor - Sri Aaduthurai Perumal Temple,"<h3>Thirukkoodaloor - Sri Aaduthurai Perumal Temple</h3><div><b>Location:</b> Papanasam, Thanjavur, Tamil Nadu, India</div><div><b>Cluster:</b> Chola Nadu (South) / Thanjavur–Kumbakonam Cluster</div>",audio/9.Kapisthalam.m4a,,
10,Thirukkavithalam (Kabisthalam) - Sri Gajendra Varadha Perumal Temple,Thirukkavithalam (Kabisthalam),Kabisthalam,Papanasam,Thanjavur,Tamil Nadu,India,10.94733983,79.25713098,Chola Nadu (South),Thanjavur–Kumbakonam Cluster,orange,temple,Kabisthalam • Papanasam,Thirukkavithalam (Kabisthalam) - Sri Gajendra Varadha Perumal Temple,"<h3>Thirukkavithalam (Kabisthalam) - Sri Gajendra Varadha Perumal Temple</h3><div><b>Location:</b> Papanasam, Thanjavur, Tamil Nadu, India</div><div><b>Cluster:</b> Chola Nadu (South) / Thanjavur–Kumbakonam Cluster</div>",audio/10.Thirupullabhoongudi.m4a,,
11,Thiruppullam Boothankudi - Sri Valvil Ramar Perumal Temple,Thiruppullam Boothankudi,Pullabhoothankudi,Kumbakonam,Thanjavur,Tamil Nadu,India,10.97184208,79.30379371,Chola Nadu (South),Thanjavur–Kumbakonam Cluster,orange,temple,Pullabhoothankudi • Kumbakonam,Thiruppullam Boothankudi - Sri Valvil Ramar Perumal Temple,"<h3>Thiruppullam Boothankudi - Sri Valvil Ramar Perumal Temple</h3><div><b>Location:</b> Kumbakonam, Thanjavur, Tamil Nadu, India</div><div><b>Cluster:</b> Chola Nadu (South) / Thanjavur–Kumbakonam Cluster</div>",,,
12,Thiru Aadhanoor - Sri Aandu Alakkum Ayan Perumal Temple,Thiru Aadhanoor,Aadanur,Kumbakonam,Thanjavur,Tamil Nadu,India,10.97654672,79.31362024,Chola Nadu (South),Thanjavur–Kumbakonam Cluster,orange,temple,Aadanur • Kumbakonam,Thiru Aadhanoor - Sri Aandu Alakkum Ayan Perumal Temple,"<h3>Thiru Aadhanoor - Sri Aandu Alakkum Ayan Perumal Temple</h3><div><b>Location:</b> Kumbakonam, Thanjavur, Tamil Nadu, India</div><div><b>Cluster:</b> Chola Nadu (South) / Thanjavur–Kumbakonam Cluster</div>",,,
13,Thirukkudanthai - Sri Saarangapani Perumal Temple,Thirukkudanthai,Kumbakonam,Kumbakonam,Thanjavur,Tamil Nadu,India,10.95981199,79.37547055,Chola Nadu (South),Thanjavur–Kumbakonam Cluster,orange,temple,Kumbakonam • Kumbakonam,Thirukkudanthai - Sri Saarangapani Perumal Temple,"<h3>Thirukkudanthai - Sri Saarangapani Perumal Temple</h3><div><b>Location:</b> Kumbakonam, Thanjavur, Tamil Nadu, India</div><div><b>Cluster:</b> Chola Nadu (South) / Thanjavur–Kumbakonam Cluster</div>",,,
14,Thiru Vinnagar - Sri Oppiliappa Perumal Temple,Thiru Vinnagar,Oppiliappan Koil,Thirunageswaram,Thanjavur,Tamil Nadu,India,10.96199763,79.43212635,Chola Nadu (South),Thanjavur–Kumbakonam Cluster,orange,temple,Oppiliappan Koil • Thirunageswaram,Thiru Vinnagar - Sri Oppiliappa Perumal Temple,"<h3>Thiru Vinnagar - Sri Oppiliappa Perumal Temple</h3><div><b>Location:</b> Thirunageswaram, Thanjavur, Tamil Nadu, India</div><div><b>Cluster:</b> Chola Nadu (South) / Thanjavur–Kumbakonam Cluster</div>",,,
15,Thirunarayoor (Naachchiyaar koil) - Sri Thirunarayoor Nambi Perumal Temple,Thirunarayoor,Nachiyar Koil,Kumbakonam,Thanjavur,Tamil Nadu,India,10.91613576,79.44603835,Chola Nadu (South),Thanjavur–Kumbakonam Cluster,orange,temple,Nachiyar Koil • Kumbakonam,Thirunarayoor (Naachchiyaar koil) - Sri Thirunarayoor Nambi Perumal Temple,"<h3>Thirunarayoor (Naachchiyaar koil) - Sri Thirunarayoor Nambi Perumal Temple</h3><div><b>Location:</b> Kumbakonam, Thanjavur, Tamil Nadu, India</div><div><b>Cluster:</b> Chola Nadu (South) / Thanjavur–Kumbakonam Cluster</div>",,,
16,Thiruccherai - Sri Saranathan Perumal Temple,Thiruccherai,Thirucherai,Kumbakonam,Thanjavur,Tamil Nadu,India,10.87894546,79.45435825,Chola Nadu (South),Thanjavur–Kumbakonam Cluster,orange,temple,Thirucherai • Kumbakonam,Thiruccherai - Sri Saranathan Perumal Temple,"<h3>Thiruccherai - Sri Saranathan Perumal Temple</h3><div><b>Location:</b> Kumbakonam, Thanjavur, Tamil Nadu, India</div><div><b>Cluster:</b> Chola Nadu (South) / Thanjavur–Kumbakonam Cluster</div>",,,
17,Thirukkannamangai - Sri Bhaktavatsala Perumal Temple,Thirukkannamangai,Thirukkannamangai,Tiruvarur,Tiruvarur,Tamil Nadu,India,10.7997464,79.58661722,Chola Nadu (South),Thanjavur–Kumbakonam Cluster,orange,temple,Thirukkannamangai • Tiruvarur,Thirukkannamangai - Sri Bhaktavatsala Perumal Temple,"<h3>Thirukkannamangai - Sri Bhaktavatsala Perumal Temple</h3><div><b>Location:</b> Tiruvarur, Tiruvarur, Tamil Nadu, India</div><div><b>Cluster:</b> Chola Nadu (South) / Thanjavur–Kumbakonam Cluster</div>",,,
18,Thirunandhipura Vinnagaram (Nathan Koil) - Sri Jaganatha Perumal Temple,Thirunandhipura Vinnagaram,Nathan Koil,Kumbakonam,Thanjavur,Tamil Nadu,India,10.92212034,79.37173102,Chola Nadu (South),Thanjavur–Kumbakonam Cluster,orange,temple,Nathan Koil • Kumbakonam,Thirunandhipura Vinnagaram (Nathan Koil) - Sri Jaganatha Perumal Temple,"<h3>Thirunandhipura Vinnagaram (Nathan Koil) - Sri Jaganatha Perumal Temple</h3><div><b>Location:</b> Kumbakonam, Thanjavur, Tamil Nadu, India</div><div><b>Cluster:</b> Chola Nadu (South) / Thanjavur–Kumbakonam Cluster</div>",,,
19,Thiruvelliyankudi - Sri Kola Valvilli Ramar Perumal Temple,Thiruvelliyankudi,Velliyankudi,Kumbakonam,Thanjavur,Tamil Nadu,India,11.05694317,79.44303394,Chola Nadu (South),Thanjavur–Kumbakonam Cluster,orange,temple,Velliyankudi • Kumbakonam,Thiruvelliyankudi - Sri Kola Valvilli Ramar Perumal Temple,"<h3>Thiruvelliyankudi - Sri Kola Valvilli Ramar Perumal Temple</h3><div><b>Location:</b> Kumbakonam, Thanjavur, Tamil Nadu, India</div><div><b>Cluster:</b> Chola Nadu (South) / Thanjavur–Kumbakonam Cluster</div>",,,
20,Thiru Indhaloor - Sri Parimala Ranganatha Perumal Temple,Thiru Indhaloor,Mayiladuthurai,Mayiladuthurai,Mayiladuthurai,Tamil Nadu,India,11.11007303,79.64660041,Chola Nadu (North),Mayiladuthurai–Nagapattinam Cluster,red,temple,Mayiladuthurai • Mayiladuthurai,Thiru Indhaloor - Sri Parimala Ranganatha Perumal Temple,"<h3>Thiru Indhaloor - Sri Parimala Ranganatha Perumal Temple</h3><div><b>Location:</b> Mayiladuthurai, Mayiladuthurai, Tamil Nadu, India</div><div><b>Cluster:</b> Chola Nadu (North) / Mayiladuthurai–Nagapattinam Cluster</div>",,,
21,Thiruvazhunthoor - Sri Devaadi Raja Perumal Temple,Thiruvazhunthoor,Thiruvazhundur,Mayiladuthurai,Mayiladuthurai,Tamil Nadu,India,11.31736928,79.60201054,Chola Nadu (North),Mayiladuthurai–Nagapattinam Cluster,red,temple,Thiruvazhundur • Mayiladuthurai,Thiruvazhunthoor - Sri Devaadi Raja Perumal Temple,"<h3>Thiruvazhunthoor - Sri Devaadi Raja Perumal Temple</h3><div><b>Location:</b> Mayiladuthurai, Mayiladuthurai, Tamil Nadu, India</div><div><b>Cluster:</b> Chola Nadu (North) / Mayiladuthurai–Nagapattinam Cluster</div>",,,
22,Thiru Sirupuliyur - Sri Arulmaakadal Perumal Temple,Thiru Sirupuliyur,Sirupuliyur,Mayiladuthurai,Mayiladuthurai,Tamil Nadu,India,10.99029547,79.66918748,Chola Nadu (North),Mayiladuthurai–Nagapattinam Cluster,red,temple,Sirupuliyur • Mayiladuthurai,Thiru Sirupuliyur - Sri Arulmaakadal Perumal Temple,"<h3>Thiru Sirupuliyur - Sri Arulmaakadal Perumal Temple</h3><div><b>Location:</b> Mayiladuthurai, Mayiladuthurai, Tamil Nadu, India</div><div><b>Cluster:</b> Chola Nadu (North) / Mayiladuthurai–Nagapattinam Cluster</div>",,,
23,Thirukkannapuram - Sri Sowrirajan Neelamega Perumal Temple,Thirukkannapuram,Thirukkannapuram,Nagapattinam,Nagapattinam,Tamil Nadu,India,10.8684825,79.70467657,Chola Nadu (North),Mayiladuthurai–Nagapattinam Cluster,red,temple,Thirukkannapuram • Nagapattinam,Thirukkannapuram - Sri Sowrirajan Neelamega Perumal Temple,"<h3>Thirukkannapuram - Sri Sowrirajan Neelamega Perumal Temple</h3><div><b>Location:</b> Nagapattinam, Nagapattinam, Tamil Nadu, India</div><div><b>Cluster:</b> Chola Nadu (North) / Mayiladuthurai–Nagapattinam Cluster</div>",,,
24,"Thiru Naagai - Sri Soundararajaperumal Perumal Temple, Nagapattinam",Thiru Naagai,Nagapattinam,Nagapattinam,Nagapattinam,Tamil Nadu,India,10.76080904,79.84065861,Chola Nadu (North),Mayiladuthurai–Nagapattinam Cluster,red,temple,Nagapattinam • Nagapattinam,"Thiru Naagai - Sri Soundararajaperumal Perumal Temple, Nagapattinam","<h3>Thiru Naagai - Sri Soundararajaperumal Perumal Temple, Nagapattinam</h3><div><b>Location:</b> Nagapattinam, Nagapattinam, Tamil Nadu, India</div><div><b>Cluster:</b> Chola Nadu (North) / Mayiladuthurai–Nagapattinam Cluster</div>",,,
25,Thirukkannankudi - Sri Loganatha Perumal Temple,Thirukkannankudi,Thirukkannankudi,Nagapattinam,Nagapattinam,Tamil Nadu,India,10.75681444,79.76324058,Chola Nadu (North),Mayiladuthurai–Nagapattinam Cluster,red,temple,Thirukkannankudi • Nagapattinam,Thirukkannankudi - Sri Loganatha Perumal Temple,"<h3>Thirukkannankudi - Sri Loganatha Perumal Temple</h3><div><b>Location:</b> Nagapattinam, Nagapattinam, Tamil Nadu, India</div><div><b>Cluster:</b> Chola Nadu (North) / Mayiladuthurai–Nagapattinam Cluster</div>",,,
26,Thiru Thalaicchanga Naanmathiyam - Sri Naan Madhiya Perumal Temple,Thiru Thalaicchanga Naanmathiyam,Sirkazhi Coast,Sirkazhi,Mayiladuthurai,Tamil Nadu,India,11.12998414,79.78528419,Chola Nadu (North),Mayiladuthurai–Nagapattinam Cluster,red,temple,Sirkazhi Coast • Sirkazhi,Thiru Thalaicchanga Naanmathiyam - Sri Naan Madhiya Perumal Temple,"<h3>Thiru Thalaicchanga Naanmathiyam - Sri Naan Madhiya Perumal Temple</h3><div><b>Location:</b> Sirkazhi, Mayiladuthurai, Tamil Nadu, India</div><div><b>Cluster:</b> Chola Nadu (North) / Mayiladuthurai–Nagapattinam Cluster</div>",,,
27,Kaazhicheeraama Vinnagaram - Thadalar Seerkazhi Thirivikaraman Perumal Temple,Kaazhicheeraama Vinnagaram,Thirivikaraman,Sirkazhi,Mayiladuthurai,Tamil Nadu,India,11.24112217,79.73158729,Chola Nadu (North),Thirunangur–Sirkazhi Cluster,red,temple,Thirivikaraman • Sirkazhi,Kaazhicheeraama Vinnagaram - Thadalar Seerkazhi Thirivikaraman Perumal Temple,"<h3>Kaazhicheeraama Vinnagaram - Thadalar Seerkazhi Thirivikaraman Perumal Temple</h3><div><b>Location:</b> Sirkazhi, Mayiladuthurai, Tamil Nadu, India</div><div><b>Cluster:</b> Chola Nadu (North) / Thirunangur–Sirkazhi Cluster</div>",,,
28,Thiruvellakkulam (Annan Kovil) - Sri Srinivasa Perumal Temple,Thiruvellakkulam (Annan Kovil),Annan Kovil,Sirkazhi,Mayiladuthurai,Tamil Nadu,India,11.19023481,79.76489778,Chola Nadu (North),Thirunangur–Sirkazhi Cluster,red,temple,Annan Kovil • Sirkazhi,Thiruvellakkulam (Annan Kovil) - Sri Srinivasa Perumal Temple,"<h3>Thiruvellakkulam (Annan Kovil) - Sri Srinivasa Perumal Temple</h3><div><b>Location:</b> Sirkazhi, Mayiladuthurai, Tamil Nadu, India</div><div><b>Cluster:</b> Chola Nadu (North) / Thirunangur–Sirkazhi Cluster</div>",,,
29,Thiru Devanaar Thogai - Sri Deiva Naayaga Perumal Temple,Thiru Devanaar Thogai,Deivanayagam,Thirunangur,Mayiladuthurai,Tamil Nadu,India,11.19050827,79.76503716,Chola Nadu (North),Thirunangur–Sirkazhi Cluster,red,temple,Deivanayagam • Thirunangur,Thiru Devanaar Thogai - Sri Deiva Naayaga Perumal Temple,"<h3>Thiru Devanaar Thogai - Sri Deiva Naayaga Perumal Temple</h3><div><b>Location:</b> Thirunangur, Mayiladuthurai, Tamil Nadu, India</div><div><b>Cluster:</b> Chola Nadu (North) / Thirunangur–Sirkazhi Cluster</div>",,,
30,Thiruvaali Thirunagari - Sri Lakshmi Narashima Perumal Temple,Thiruvaali Thirunagari,Thirunangur Pair,Thirunangur,Mayiladuthurai,Tamil Nadu,India,11.20324185,79.77488612,Chola Nadu (North),Thirunangur–Sirkazhi Cluster,red,temple,Thirunangur Pair • Thirunangur,Thiruvaali Thirunagari - Sri Lakshmi Narashima Perumal Temple,"<h3>Thiruvaali Thirunagari - Sri Lakshmi Narashima Perumal Temple</h3><div><b>Location:</b> Thirunangur, Mayiladuthurai, Tamil Nadu, India</div><div><b>Cluster:</b> Chola Nadu (North) / Thirunangur–Sirkazhi Cluster</div>",,,
31,Thiru Kavalampaadi - Sri Gopala Krishna Perumal Temple,Thiru Kavalampaadi,Kavalampaadi,Thirunangur,Mayiladuthurai,Tamil Nadu,India,11.20410413,79.77470334,Chola Nadu (North),Thirunangur–Sirkazhi Cluster,red,temple,Kavalampaadi • Thirunangur,Thiru Kavalampaadi - Sri Gopala Krishna Perumal Temple,"<h3>Thiru Kavalampaadi - Sri Gopala Krishna Perumal Temple</h3><div><b>Location:</b> Thirunangur, Mayiladuthurai, Tamil Nadu, India</div><div><b>Cluster:</b> Chola Nadu (North) / Thirunangur–Sirkazhi Cluster</div>",,,
32,Thiru Manikkoodam - Sri Varadharaja Perumal Temple,Thiru Manikkoodam,Manikkoodam,Thirunangur,Mayiladuthurai,Tamil Nadu,India,11.25937307,79.83014775,Chola Nadu (North),Thirunangur–Sirkazhi Cluster,red,temple,Manikkoodam • Thirunangur,Thiru Manikkoodam - Sri Varadharaja Perumal Temple,"<h3>Thiru Manikkoodam - Sri Varadharaja Perumal Temple</h3><div><b>Location:</b> Thirunangur, Mayiladuthurai, Tamil Nadu, India</div><div><b>Cluster:</b> Chola Nadu (North) / Thirunangur–Sirkazhi Cluster</div>",,,
33,Thiru Paarthanpalli - Sri Thamaraiyal Kelvan Perumal Temple,Thiru Paarthanpalli,Parthanpalli,Thirunangur,Mayiladuthurai,Tamil Nadu,India,11.26208099,79.80654461,Chola Nadu (North),Thirunangur–Sirkazhi Cluster,red,temple,Parthanpalli • Thirunangur,Thiru Paarthanpalli - Sri Thamaraiyal Kelvan Perumal Temple,"<h3>Thiru Paarthanpalli - Sri Thamaraiyal Kelvan Perumal Temple</h3><div><b>Location:</b> Thirunangur, Mayiladuthurai, Tamil Nadu, India</div><div><b>Cluster:</b> Chola Nadu (North) / Thirunangur–Sirkazhi Cluster</div>",,,
34,Thiru Manimaada Kovil - Sri Narayana Perumal Temple,Thiru Manimaada Kovil,Manimaada Kovil,Thirunangur,Mayiladuthurai,Tamil Nadu,India,11.17741293,79.77755824,Chola Nadu (North),Thirunangur–Sirkazhi Cluster,red,temple,Manimaada Kovil • Thirunangur,Thiru Manimaada Kovil - Sri Narayana Perumal Temple,"<h3>Thiru Manimaada Kovil - Sri Narayana Perumal Temple</h3><div><b>Location:</b> Thirunangur, Mayiladuthurai, Tamil Nadu, India</div><div><b>Cluster:</b> Chola Nadu (North) / Thirunangur–Sirkazhi Cluster</div>",,,
35,Thiru Arimeya Vinnagaram - Sri Kuda Maadu Koothan Perumal Temple,Thiru Arimeya Vinnagaram,Arimeya Vinnagaram,Thirunangur,Mayiladuthurai,Tamil Nadu,India,11.17513782,79.77900368,Chola Nadu (North),Thirunangur–Sirkazhi Cluster,red,temple,Arimeya Vinnagaram • Thirunangur,Thiru Arimeya Vinnagaram - Sri Kuda Maadu Koothan Perumal Temple,"<h3>Thiru Arimeya Vinnagaram - Sri Kuda Maadu Koothan Perumal Temple</h3><div><b>Location:</b> Thirunangur, Mayiladuthurai, Tamil Nadu, India</div><div><b>Cluster:</b> Chola Nadu (North) / Thirunangur–Sirkazhi Cluster</div>",,,
36,Thiru Thetri Aambalam - Sri Seganmaal Ranganatha Perumal Temple,Thiru Thetri Aambalam,Thetri Ambalam,Thirunangur,Mayiladuthurai,Tamil Nadu,India,11.17731988,79.77698589,Chola Nadu (North),Thirunangur–Sirkazhi Cluster,red,temple,Thetri Ambalam • Thirunangur,Thiru Thetri Aambalam - Sri Seganmaal Ranganatha Perumal Temple,"<h3>Thiru Thetri Aambalam - Sri Seganmaal Ranganatha Perumal Temple</h3><div><b>Location:</b> Thirunangur, Mayiladuthurai, Tamil Nadu, India</div><div><b>Cluster:</b> Chola Nadu (North) / Thirunangur–Sirkazhi Cluster</div>",,,
37,Thiru Sempon Sei Kovil - Sri Per Arulaalan Perumal Temple,Thiru Sempon Sei Kovil,Sempon Seikoil,Thirunangur,Mayiladuthurai,Tamil Nadu,India,11.17933305,79.77966706,Chola Nadu (North),Thirunangur–Sirkazhi Cluster,red,temple,Sempon Seikoil • Thirunangur,Thiru Sempon Sei Kovil - Sri Per Arulaalan Perumal Temple,"<h3>Thiru Sempon Sei Kovil - Sri Per Arulaalan Perumal Temple</h3><div><b>Location:</b> Thirunangur, Mayiladuthurai, Tamil Nadu, India</div><div><b>Cluster:</b> Chola Nadu (North) / Thirunangur–Sirkazhi Cluster</div>",,,
38,Thiru Vann Purushothamam - Sri Purushothama Perumal Temple,Thiru Vann Purushothamam,Vann Purushothamam,Thirunangur,Mayiladuthurai,Tamil Nadu,India,11.17894922,79.77726028,Chola Nadu (North),Thirunangur–Sirkazhi Cluster,red,temple,Vann Purushothamam • Thirunangur,Thiru Vann Purushothamam - Sri Purushothama Perumal Temple,"<h3>Thiru Vann Purushothamam - Sri Purushothama Perumal Temple</h3><div><b>Location:</b> Thirunangur, Mayiladuthurai, Tamil Nadu, India</div><div><b>Cluster:</b> Chola Nadu (North) / Thirunangur–Sirkazhi Cluster</div>",,,
39,Thiru VaiKunda Vinnagaram - Sri Vaigundha Nathan Perumal Temple,Thiru VaiKunda Vinnagaram,Vaikunda Vinnagaram,Thirunangur,Mayiladuthurai,Tamil Nadu,India,11.18059097,79.77876222,Chola Nadu (North),Thirunangur–Sirkazhi Cluster,red,temple,Vaikunda Vinnagaram • Thirunangur,Thiru VaiKunda Vinnagaram - Sri Vaigundha Nathan Perumal Temple,"<h3>Thiru VaiKunda Vinnagaram - Sri Vaigundha Nathan Perumal Temple</h3><div><b>Location:</b> Thirunangur, Mayiladuthurai, Tamil Nadu, India</div><div><b>Cluster:</b> Chola Nadu (North) / Thirunangur–Sirkazhi Cluster</div>",,,
40,Thiruchitrakootam (Chidambaram) - Sri Govindaraja Perumal Temple,Thiruchitrakootam,Chidambaram Govindaraja,Chidambaram,Cuddalore,Tamil Nadu,India,11.39930204,79.69334254,Nadu Nadu,Cuddalore–Chidambaram Cluster,yellow,temple,Chidambaram Govindaraja • Chidambaram,Thiruchitrakootam (Chidambaram) - Sri Govindaraja Perumal Temple,"<h3>Thiruchitrakootam (Chidambaram) - Sri Govindaraja Perumal Temple</h3><div><b>Location:</b> Chidambaram, Cuddalore, Tamil Nadu, India</div><div><b>Cluster:</b> Nadu Nadu / Cuddalore–Chidambaram Cluster</div>",,,
41,Thiruvaheendrapuram (Cuddalore) - Sri Deyva Nayaga Perumal Temple,Thiruvaheendrapuram,Devanathaswamy,Cuddalore,Cuddalore,Tamil Nadu,India,11.74945405,79.70781082,Nadu Nadu,Cuddalore–Chidambaram Cluster,yellow,temple,Devanathaswamy • Cuddalore,Thiruvaheendrapuram (Cuddalore) - Sri Deyva Nayaga Perumal Temple,"<h3>Thiruvaheendrapuram (Cuddalore) - Sri Deyva Nayaga Perumal Temple</h3><div><b>Location:</b> Cuddalore, Cuddalore, Tamil Nadu, India</div><div><b>Cluster:</b> Nadu Nadu / Cuddalore–Chidambaram Cluster</div>",,,
42,Thirukkoviloor - Sri Thiruvikrama Perumal Temple,Thirukkoviloor,Thirukovilur,Tirukovilur,Kallakurichi,Tamil Nadu,India,11.96733511,79.20142375,Nadu Nadu,Cuddalore–Chidambaram Cluster,yellow,temple,Thirukovilur • Tirukovilur,Thirukkoviloor - Sri Thiruvikrama Perumal Temple,"<h3>Thirukkoviloor - Sri Thiruvikrama Perumal Temple</h3><div><b>Location:</b> Tirukovilur, Kallakurichi, Tamil Nadu, India</div><div><b>Cluster:</b> Nadu Nadu / Cuddalore–Chidambaram Cluster</div>",,,
43,Thirukkachchi - Sri Varadharaja Perumal Temple,Kanchipuram,Varadaraja Perumal,Kanchipuram,Kanchipuram,Tamil Nadu,India,12.8667453,79.72956393,Tondai Nadu,Kanchi–Chennai Cluster,green,temple,Varadaraja Perumal • Kanchipuram,Thirukkachchi - Sri Varadharaja Perumal Temple,"<h3>Thirukkachchi - Sri Varadharaja Perumal Temple</h3><div><b>Location:</b> Kanchipuram, Kanchipuram, Tamil Nadu, India</div><div><b>Cluster:</b> Tondai Nadu / Kanchi–Chennai Cluster</div>",,,
44,Ashtabhuyakaram - Sri Aadhikesava Perumal Temple,Ashtabhuyakaram,Ashtabhuja Perumal,Kanchipuram,Kanchipuram,Tamil Nadu,India,12.89096473,79.69981495,Tondai Nadu,Kanchi–Chennai Cluster,green,temple,Ashtabhuja Perumal • Kanchipuram,Ashtabhuyakaram - Sri Aadhikesava Perumal Temple,"<h3>Ashtabhuyakaram - Sri Aadhikesava Perumal Temple</h3><div><b>Location:</b> Kanchipuram, Kanchipuram, Tamil Nadu, India</div><div><b>Cluster:</b> Tondai Nadu / Kanchi–Chennai Cluster</div>",,,
45,Thiru Vekka - Sri Yathothakaari Temple,Thiru Vekka,Yathothakari,Kanchipuram,Kanchipuram,Tamil Nadu,India,12.82468859,79.71238692,Tondai Nadu,Kanchi–Chennai Cluster,green,temple,Yathothakari • Kanchipuram,Thiru Vekka - Sri Yathothakaari Temple,"<h3>Thiru Vekka - Sri Yathothakaari Temple</h3><div><b>Location:</b> Kanchipuram, Kanchipuram, Tamil Nadu, India</div><div><b>Cluster:</b> Tondai Nadu / Kanchi–Chennai Cluster</div>",,,
46,Thiru Velukkai - Sri Azhagiya Singar Perumal Temple,Thiru Velukkai,Velukkai (Azhagiya Singar),Kanchipuram,Kanchipuram,Tamil Nadu,India,12.82236641,79.70648615,Tondai Nadu,Kanchi–Chennai Cluster,green,temple,Velukkai (Azhagiya Singar) • Kanchipuram,Thiru Velukkai - Sri Azhagiya Singar Perumal Temple,"<h3>Thiru Velukkai - Sri Azhagiya Singar Perumal Temple</h3><div><b>Location:</b> Kanchipuram, Kanchipuram, Tamil Nadu, India</div><div><b>Cluster:</b> Tondai Nadu / Kanchi–Chennai Cluster</div>",,,
47,Thiruthanka - Sri Deepa Prakasar Perumal Temple,Thiruthanka,Deepa Prakasar,Kanchipuram,Kanchipuram,Tamil Nadu,India,12.82454561,79.70515255,Tondai Nadu,Kanchi–Chennai Cluster,green,temple,Deepa Prakasar • Kanchipuram,Thiruthanka - Sri Deepa Prakasar Perumal Temple,"<h3>Thiruthanka - Sri Deepa Prakasar Perumal Temple</h3><div><b>Location:</b> Kanchipuram, Kanchipuram, Tamil Nadu, India</div><div><b>Cluster:</b> Tondai Nadu / Kanchi–Chennai Cluster</div>",,,
48,ThirukKalvanoor - Sri Aadhi Varaha Perumal Temple,ThirukKalvanoor,Adivaraha,Kanchipuram,Kanchipuram,Tamil Nadu,India,12.859021,79.70445765,Tondai Nadu,Kanchi–Chennai Cluster,green,temple,Adivaraha • Kanchipuram,ThirukKalvanoor - Sri Aadhi Varaha Perumal Temple,"<h3>ThirukKalvanoor - Sri Aadhi Varaha Perumal Temple</h3><div><b>Location:</b> Kanchipuram, Kanchipuram, Tamil Nadu, India</div><div><b>Cluster:</b> Tondai Nadu / Kanchi–Chennai Cluster</div>",,,
49,Thiru Ooragam - Sri Ulagalantha Perumal Temple,Thiru Ooragam,Ulagalantha Perumal,Kanchipuram,Kanchipuram,Tamil Nadu,India,12.83929154,79.70488251,Tondai Nadu,Kanchi–Chennai Cluster,green,temple,Ulagalantha Perumal • Kanchipuram,Thiru Ooragam - Sri Ulagalantha Perumal Temple,"<h3>Thiru Ooragam - Sri Ulagalantha Perumal Temple</h3><div><b>Location:</b> Kanchipuram, Kanchipuram, Tamil Nadu, India</div><div><b>Cluster:</b> Tondai Nadu / Kanchi–Chennai Cluster</div>",,,
50,Thiru Neeragam - Sri Jagadeeshwarar Temple,Thiru Neeragam,Neeragam,Kanchipuram,Kanchipuram,Tamil Nadu,India,12.83967828,79.70509343,Tondai Nadu,Kanchi–Chennai Cluster,green,temple,Neeragam • Kanchipuram,Thiru Neeragam - Sri Jagadeeshwarar Temple,"<h3>Thiru Neeragam - Sri Jagadeeshwarar Temple</h3><div><b>Location:</b> Kanchipuram, Kanchipuram, Tamil Nadu, India</div><div><b>Cluster:</b> Tondai Nadu / Kanchi–Chennai Cluster</div>",,,
51,Thiru Kaaragam - Sri Karunakara Perumal Temple,Thiru Kaaragam,Karunakara Perumal,Kanchipuram,Kanchipuram,Tamil Nadu,India,12.64973803,80.17108421,Tondai Nadu,Kanchi–Chennai Cluster,green,temple,Karunakara Perumal • Kanchipuram,Thiru Kaaragam - Sri Karunakara Perumal Temple,"<h3>Thiru Kaaragam - Sri Karunakara Perumal Temple</h3><div><b>Location:</b> Kanchipuram, Kanchipuram, Tamil Nadu, India</div><div><b>Cluster:</b> Tondai Nadu / Kanchi–Chennai Cluster</div>",,,
52,Thirukkaar Vaanam - Sri Thirukkaar vaanar Temple,Thirukkaar Vaanam,Kaarvanam,Kanchipuram,Kanchipuram,Tamil Nadu,India,12.84062005,79.70550478,Tondai Nadu,Kanchi–Chennai Cluster,green,temple,Kaarvanam • Kanchipuram,Thirukkaar Vaanam - Sri Thirukkaar vaanar Temple,"<h3>Thirukkaar Vaanam - Sri Thirukkaar vaanar Temple</h3><div><b>Location:</b> Kanchipuram, Kanchipuram, Tamil Nadu, India</div><div><b>Cluster:</b> Tondai Nadu / Kanchi–Chennai Cluster</div>",,,
53,Thiruparameshwara Vinnagaram - Sri Vaikunda Perumal Temple,Thiruparameshwara Vinnagaram,Vaikunta Perumal,Kanchipuram,Kanchipuram,Tamil Nadu,India,12.8551899,79.70742661,Tondai Nadu,Kanchi–Chennai Cluster,green,temple,Vaikunta Perumal • Kanchipuram,Thiruparameshwara Vinnagaram - Sri Vaikunda Perumal Temple,"<h3>Thiruparameshwara Vinnagaram - Sri Vaikunda Perumal Temple</h3><div><b>Location:</b> Kanchipuram, Kanchipuram, Tamil Nadu, India</div><div><b>Cluster:</b> Tondai Nadu / Kanchi–Chennai Cluster</div>",,,
54,Thiru Pavala Vannan - Sri Pavala Vannar Temple,Thiru Pavala Vannan,Pavala Vannar,Kanchipuram,Kanchipuram,Tamil Nadu,India,12.84392673,79.70769087,Tondai Nadu,Kanchi–Chennai Cluster,green,temple,Pavala Vannar • Kanchipuram,Thiru Pavala Vannan - Sri Pavala Vannar Temple,"<h3>Thiru Pavala Vannan - Sri Pavala Vannar Temple</h3><div><b>Location:</b> Kanchipuram, Kanchipuram, Tamil Nadu, India</div><div><b>Cluster:</b> Tondai Nadu / Kanchi–Chennai Cluster</div>",,,
55,Thiru Nilathingal Thundam - Sri Nilathingal Thundathan Perumal Temple,Thiru Nilathingal Thundam,Nilathingal Thundathan,Kanchipuram,Kanchipuram,Tamil Nadu,India,12.84773865,79.69964415,Tondai Nadu,Kanchi–Chennai Cluster,green,temple,Nilathingal Thundathan • Kanchipuram,Thiru Nilathingal Thundam - Sri Nilathingal Thundathan Perumal Temple,"<h3>Thiru Nilathingal Thundam - Sri Nilathingal Thundathan Perumal Temple</h3><div><b>Location:</b> Kanchipuram, Kanchipuram, Tamil Nadu, India</div><div><b>Cluster:</b> Tondai Nadu / Kanchi–Chennai Cluster</div>",,,
56,Thiru Paadagam - Sri Pandava Thoodhar Temple,Thiru Paadagam,Pandava Thoothar,Kanchipuram,Kanchipuram,Tamil Nadu,India,12.84279654,79.69705636,Tondai Nadu,Kanchi–Chennai Cluster,green,temple,Pandava Thoothar • Kanchipuram,Thiru Paadagam - Sri Pandava Thoodhar Temple,"<h3>Thiru Paadagam - Sri Pandava Thoodhar Temple</h3><div><b>Location:</b> Kanchipuram, Kanchipuram, Tamil Nadu, India</div><div><b>Cluster:</b> Tondai Nadu / Kanchi–Chennai Cluster</div>",,,
57,Thiruputkuzhi - Sri Vijayaraghava Perumal Temple,Thiruputkuzhi,Vijayaraghava,Kanchipuram,Kanchipuram,Tamil Nadu,India,12.87251708,79.61882809,Tondai Nadu,Kanchi–Chennai Cluster,green,temple,Vijayaraghava • Kanchipuram,Thiruputkuzhi - Sri Vijayaraghava Perumal Temple,"<h3>Thiruputkuzhi - Sri Vijayaraghava Perumal Temple</h3><div><b>Location:</b> Kanchipuram, Kanchipuram, Tamil Nadu, India</div><div><b>Cluster:</b> Tondai Nadu / Kanchi–Chennai Cluster</div>",,,
58,Thiruvallikkeni - Sri Parthasarathy Temple,Thiruvallikkeni,Triplicane Parthasarathy,Chennai,Chennai,Tamil Nadu,India,13.05396356,80.27695609,Tondai Nadu,Kanchi–Chennai Cluster,green,temple,Triplicane Parthasarathy • Chennai,Thiruvallikkeni - Sri Parthasarathy Temple,"<h3>Thiruvallikkeni - Sri Parthasarathy Temple</h3><div><b>Location:</b> Chennai, Chennai, Tamil Nadu, India</div><div><b>Cluster:</b> Tondai Nadu / Kanchi–Chennai Cluster</div>",,,
59,Thiruneermalai - Sri Neervanna Perumal Temple,Thiruneermalai,Neervanna Perumal,Chennai,Chengalpattu,Tamil Nadu,India,12.96389584,80.11451251,Tondai Nadu,Kanchi–Chennai Cluster,green,temple,Neervanna Perumal • Chennai,Thiruneermalai - Sri Neervanna Perumal Temple,"<h3>Thiruneermalai - Sri Neervanna Perumal Temple</h3><div><b>Location:</b> Chennai, Chengalpattu, Tamil Nadu, India</div><div><b>Cluster:</b> Tondai Nadu / Kanchi–Chennai Cluster</div>",,,
60,Thiruvedanthai - Sri Nithya Kalyana Perumal Temple,Thiruvedanthai,Nithya Kalyana Perumal,Mahabalipuram,Chengalpattu,Tamil Nadu,India,12.76337251,80.24199146,Tondai Nadu,Kanchi–Chennai Cluster,green,temple,Nithya Kalyana Perumal • Mahabalipuram,Thiruvedanthai - Sri Nithya Kalyana Perumal Temple,"<h3>Thiruvedanthai - Sri Nithya Kalyana Perumal Temple</h3><div><b>Location:</b> Mahabalipuram, Chengalpattu, Tamil Nadu, India</div><div><b>Cluster:</b> Tondai Nadu / Kanchi–Chennai Cluster</div>",,,
61,Thiru Kadalmalai (Mahabalipuram) - Sri Sthala Sayana Perumal Temple,Thiru Kadalmalai,Sthala Sayana Perumal,Mahabalipuram,Chengalpattu,Tamil Nadu,India,12.61762086,80.19301875,Tondai Nadu,Kanchi–Chennai Cluster,green,temple,Sthala Sayana Perumal • Mahabalipuram,Thiru Kadalmalai (Mahabalipuram) - Sri Sthala Sayana Perumal Temple,"<h3>Thiru Kadalmalai (Mahabalipuram) - Sri Sthala Sayana Perumal Temple</h3><div><b>Location:</b> Mahabalipuram, Chengalpattu, Tamil Nadu, India</div><div><b>Cluster:</b> Tondai Nadu / Kanchi–Chennai Cluster</div>",,,
62,Thiru Nindravoor (Thirunindravur) - Sri Bhatavatsala Perumal Temple,Thiru Nindravoor,Bhaktavatsala Perumal,Thirunindravur,Tiruvallur,Tamil Nadu,India,13.11267762,80.02612182,Tondai Nadu,Kanchi–Chennai Cluster,green,temple,Bhaktavatsala Perumal • Thirunindravur,Thiru Nindravoor (Thirunindravur) - Sri Bhatavatsala Perumal Temple,"<h3>Thiru Nindravoor (Thirunindravur) - Sri Bhatavatsala Perumal Temple</h3><div><b>Location:</b> Thirunindravur, Tiruvallur, Tamil Nadu, India</div><div><b>Cluster:</b> Tondai Nadu / Kanchi–Chennai Cluster</div>",,,
63,Thiruevvuloor (Tiruvallur) - Sri Veeraraghava Perumal Temple,Thiruevvuloor,Veeraraghava Perumal,Tiruvallur,Tiruvallur,Tamil Nadu,India,13.14350441,79.90724478,Tondai Nadu,Kanchi–Chennai Cluster,green,temple,Veeraraghava Perumal • Tiruvallur,Thiruevvuloor (Tiruvallur) - Sri Veeraraghava Perumal Temple,"<h3>Thiruevvuloor (Tiruvallur) - Sri Veeraraghava Perumal Temple</h3><div><b>Location:</b> Tiruvallur, Tiruvallur, Tamil Nadu, India</div><div><b>Cluster:</b> Tondai Nadu / Kanchi–Chennai Cluster</div>",,,
64,Thirukkadigai (Sholingur) - Sri Yoga Narasimha Swamy Temple,Thirukkadigai (Sholingur),Yoga Narasimhar,Sholingur,Ranipet,Tamil Nadu,India,13.09002031,79.41880514,Tondai Nadu,Kanchi–Chennai Cluster,green,temple,Yoga Narasimhar • Sholingur,Thirukkadigai (Sholingur) - Sri Yoga Narasimha Swamy Temple,"<h3>Thirukkadigai (Sholingur) - Sri Yoga Narasimha Swamy Temple</h3><div><b>Location:</b> Sholingur, Ranipet, Tamil Nadu, India</div><div><b>Cluster:</b> Tondai Nadu / Kanchi–Chennai Cluster</div>",,,
65,Thirukkoodal - Sri Koodal Azhagar Perumal Temple,Thirukkoodal,Koodal Azhagar,Madurai,Madurai,Tamil Nadu,India,9.914683105,78.11423268,Pandiya Nadu,Madurai–Ramanathapuram Cluster,blue,temple,Koodal Azhagar • Madurai,Thirukkoodal - Sri Koodal Azhagar Perumal Temple,"<h3>Thirukkoodal - Sri Koodal Azhagar Perumal Temple</h3><div><b>Location:</b> Madurai, Madurai, Tamil Nadu, India</div><div><b>Cluster:</b> Pandiya Nadu / Madurai–Ramanathapuram Cluster</div>",,,
66,Thiru Moghur - Sri Kaalamegha Perumal Temple,Thiru Moghur,Kalamegha Perumal,Madurai,Madurai,Tamil Nadu,India,9.950937267,78.20705748,Pandiya Nadu,Madurai–Ramanathapuram Cluster,blue,temple,Kalamegha Perumal • Madurai,Thiru Moghur - Sri Kaalamegha Perumal Temple,"<h3>Thiru Moghur - Sri Kaalamegha Perumal Temple</h3><div><b>Location:</b> Madurai, Madurai, Tamil Nadu, India</div><div><b>Cluster:</b> Pandiya Nadu / Madurai–Ramanathapuram Cluster</div>",,,
67,Thirumaalirunsolai (Alagar Kovil) - Sri Kallazhagar Perumal Temple,Thirumaalirunsolai,Azhagar Kovil,Madurai,Madurai,Tamil Nadu,India,10.07480861,78.21317042,Pandiya Nadu,Madurai–Ramanathapuram Cluster,blue,temple,Azhagar Kovil • Madurai,Thirumaalirunsolai (Alagar Kovil) - Sri Kallazhagar Perumal Temple,"<h3>Thirumaalirunsolai (Alagar Kovil) - Sri Kallazhagar Perumal Temple</h3><div><b>Location:</b> Madurai, Madurai, Tamil Nadu, India</div><div><b>Cluster:</b> Pandiya Nadu / Madurai–Ramanathapuram Cluster</div>",,,
68,Thirukkotiyoor - Sri Uraga Mellanayaan Perumal Temple,Thirukkotiyoor,Thirukoshtiyur,Sivaganga,Sivaganga,Tamil Nadu,India,10.06113363,78.5603866,Pandiya Nadu,Madurai–Ramanathapuram Cluster,blue,temple,Thirukoshtiyur • Sivaganga,Thirukkotiyoor - Sri Uraga Mellanayaan Perumal Temple,"<h3>Thirukkotiyoor - Sri Uraga Mellanayaan Perumal Temple</h3><div><b>Location:</b> Sivaganga, Sivaganga, Tamil Nadu, India</div><div><b>Cluster:</b> Pandiya Nadu / Madurai–Ramanathapuram Cluster</div>",,,
69,Thirumeyyam - Sri Sathyagiri Natha Perumal Temple,Thirumeyyam,Thirumeyyam,Pudukkottai,Pudukkottai,Tamil Nadu,India,10.24674648,78.75207237,Pandiya Nadu,Madurai–Ramanathapuram Cluster,blue,temple,Thirumeyyam • Pudukkottai,Thirumeyyam - Sri Sathyagiri Natha Perumal Temple,"<h3>Thirumeyyam - Sri Sathyagiri Natha Perumal Temple</h3><div><b>Location:</b> Pudukkottai, Pudukkottai, Tamil Nadu, India</div><div><b>Cluster:</b> Pandiya Nadu / Madurai–Ramanathapuram Cluster</div>",,,
70,Thiruppullanni (Ramanathapuram) - Sri Kalyana Jagannatha Perumal Temple,Thiruppullanni,Tirupullani,Ramanathapuram,Ramanathapuram,Tamil Nadu,India,9.283213399,78.82491192,Pandiya Nadu,Madurai–Ramanathapuram Cluster,blue,temple,Tirupullani • Ramanathapuram,Thiruppullanni (Ramanathapuram) - Sri Kalyana Jagannatha Perumal Temple,"<h3>Thiruppullanni (Ramanathapuram) - Sri Kalyana Jagannatha Perumal Temple</h3><div><b>Location:</b> Ramanathapuram, Ramanathapuram, Tamil Nadu, India</div><div><b>Cluster:</b> Pandiya Nadu / Madurai–Ramanathapuram Cluster</div>",,,
71,Thiruthankaal (Sivakasi) - Sri Nindra Narayana Perumal Temple,Thiruthankaal,Thiruthangal,Sivakasi,Virudhunagar,Tamil Nadu,India,9.482018412,77.81128081,Pandiya Nadu,Madurai–Ramanathapuram Cluster,blue,temple,Thiruthangal • Sivakasi,Thiruthankaal (Sivakasi) - Sri Nindra Narayana Perumal Temple,"<h3>Thiruthankaal (Sivakasi) - Sri Nindra Narayana Perumal Temple</h3><div><b>Location:</b> Sivakasi, Virudhunagar, Tamil Nadu, India</div><div><b>Cluster:</b> Pandiya Nadu / Madurai–Ramanathapuram Cluster</div>",,,
72,Thiruvilliputtur (Sri Villiputhoor) - Sri Vadabhatra Saayi Perumal Temple,Thiruvilliputtur,Srivilliputhur,Srivilliputhur,Virudhunagar,Tamil Nadu,India,9.516673635,77.62881119,Pandiya Nadu,Madurai–Ramanathapuram Cluster,blue,temple,Srivilliputhur • Srivilliputhur,Thiruvilliputtur (Sri Villiputhoor) - Sri Vadabhatra Saayi Perumal Temple,"<h3>Thiruvilliputtur (Sri Villiputhoor) - Sri Vadabhatra Saayi Perumal Temple</h3><div><b>Location:</b> Srivilliputhur, Virudhunagar, Tamil Nadu, India</div><div><b>Cluster:</b> Pandiya Nadu / Madurai–Ramanathapuram Cluster</div>",,,
73,Thiruvaikuntham (Sri Vaikundam) - Sri Vaikundanatha Perumal Temple,Thiruvaikuntham,Srivaikuntam,Srivaikuntam,Tirunelveli,Tamil Nadu,India,8.631440427,77.91013914,Pandiya Nadu,Tirunelveli–Kanyakumari Cluster,blue,temple,Srivaikuntam • Srivaikuntam,Thiruvaikuntham (Sri Vaikundam) - Sri Vaikundanatha Perumal Temple,"<h3>Thiruvaikuntham (Sri Vaikundam) - Sri Vaikundanatha Perumal Temple</h3><div><b>Location:</b> Srivaikuntam, Tirunelveli, Tamil Nadu, India</div><div><b>Cluster:</b> Pandiya Nadu / Tirunelveli–Kanyakumari Cluster</div>",,,
74,Thiruvaragunamangai - Sri Vijayaasana Perumal Temple,Thiruvaragunamangai,Natham (Varagunamangai),Natham,Tirunelveli,Tamil Nadu,India,8.637257228,77.92442815,Pandiya Nadu,Tirunelveli–Kanyakumari Cluster,blue,temple,Natham (Varagunamangai) • Natham,Thiruvaragunamangai - Sri Vijayaasana Perumal Temple,"<h3>Thiruvaragunamangai - Sri Vijayaasana Perumal Temple</h3><div><b>Location:</b> Natham, Tirunelveli, Tamil Nadu, India</div><div><b>Cluster:</b> Pandiya Nadu / Tirunelveli–Kanyakumari Cluster</div>",,,
75,Thiruppulingudu - Sri Kaaichina Vendha Perumal Temple,Thiruppulingudu,Thirupulingudi,Thirupulingudi,Tirunelveli,Tamil Nadu,India,8.640333145,77.93323643,Pandiya Nadu,Tirunelveli–Kanyakumari Cluster,blue,temple,Thirupulingudi • Thirupulingudi,Thiruppulingudu - Sri Kaaichina Vendha Perumal Temple,"<h3>Thiruppulingudu - Sri Kaaichina Vendha Perumal Temple</h3><div><b>Location:</b> Thirupulingudi, Tirunelveli, Tamil Nadu, India</div><div><b>Cluster:</b> Pandiya Nadu / Tirunelveli–Kanyakumari Cluster</div>",,,
76,Thirukkulanthai - Sri Srinivasa Perumal Temple,Thirukkulanthai,Thenthiruperai/Perungulam region,Perungulam,Tirunelveli,Tamil Nadu,India,8.638084165,77.92461044,Pandiya Nadu,Tirunelveli–Kanyakumari Cluster,blue,temple,Thenthiruperai/Perungulam region • Perungulam,Thirukkulanthai - Sri Srinivasa Perumal Temple,"<h3>Thirukkulanthai - Sri Srinivasa Perumal Temple</h3><div><b>Location:</b> Perungulam, Tirunelveli, Tamil Nadu, India</div><div><b>Cluster:</b> Pandiya Nadu / Tirunelveli–Kanyakumari Cluster</div>",,,
77,Thiruttholai Villimangalam (Twin Thirupathis) - Sri Aravindha Lochana Perumal Temple,Thiruttholai Villimangalam,Irattai Tirupati (Aravindalochanar),Tiruchendur belt,Thoothukudi,Tamil Nadu,India,8.612315841,77.97216969,Pandiya Nadu,Tirunelveli–Kanyakumari Cluster,blue,temple,Irattai Tirupati (Aravindalochanar) • Tiruchendur belt,Thiruttholai Villimangalam (Twin Thirupathis) - Sri Aravindha Lochana Perumal Temple,"<h3>Thiruttholai Villimangalam (Twin Thirupathis) - Sri Aravindha Lochana Perumal Temple</h3><div><b>Location:</b> Tiruchendur belt, Thoothukudi, Tamil Nadu, India</div><div><b>Cluster:</b> Pandiya Nadu / Tirunelveli–Kanyakumari Cluster</div>",,,
78,Thirupperai - Sri Magara NedungKuzhai Kaathar Perumal Temple,Thirupperai,Thenthiruperai,Thenthiruperai,Thoothukudi,Tamil Nadu,India,8.603879318,77.98667044,Pandiya Nadu,Tirunelveli–Kanyakumari Cluster,blue,temple,Thenthiruperai • Thenthiruperai,Thirupperai - Sri Magara NedungKuzhai Kaathar Perumal Temple,"<h3>Thirupperai - Sri Magara NedungKuzhai Kaathar Perumal Temple</h3><div><b>Location:</b> Thenthiruperai, Thoothukudi, Tamil Nadu, India</div><div><b>Cluster:</b> Pandiya Nadu / Tirunelveli–Kanyakumari Cluster</div>",,,
79,Thirukkoloor - Sri Vaitha Maanitha Perumal Temple,Thirukkoloor,Thirukkolur,Thirukkolur,Thoothukudi,Tamil Nadu,India,8.610042427,77.97252974,Pandiya Nadu,Tirunelveli–Kanyakumari Cluster,blue,temple,Thirukkolur • Thirukkolur,Thirukkoloor - Sri Vaitha Maanitha Perumal Temple,"<h3>Thirukkoloor - Sri Vaitha Maanitha Perumal Temple</h3><div><b>Location:</b> Thirukkolur, Thoothukudi, Tamil Nadu, India</div><div><b>Cluster:</b> Pandiya Nadu / Tirunelveli–Kanyakumari Cluster</div>",,,
80,Thirukkurugur (Alwar Thirunagiri) - Sri Aadhinatha Swamy Temple,Thirukkurugur,Alwar Thirunagari,Tirunagari,Thoothukudi,Tamil Nadu,India,8.607425199,77.93877021,Pandiya Nadu,Tirunelveli–Kanyakumari Cluster,blue,temple,Alwar Thirunagari • Tirunagari,Thirukkurugur (Alwar Thirunagiri) - Sri Aadhinatha Swamy Temple,"<h3>Thirukkurugur (Alwar Thirunagiri) - Sri Aadhinatha Swamy Temple</h3><div><b>Location:</b> Tirunagari, Thoothukudi, Tamil Nadu, India</div><div><b>Cluster:</b> Pandiya Nadu / Tirunelveli–Kanyakumari Cluster</div>",,,
81,Thiruvaramangai Vaanamaamalai (Nanguneri) - Sri Thothatrinatha Perumal Temple,Thiruvaramangai Vaanamaamalai,Nanguneri,Nanguneri,Tirunelveli,Tamil Nadu,India,8.492061798,77.65741911,Pandiya Nadu,Tirunelveli–Kanyakumari Cluster,blue,temple,Nanguneri • Nanguneri,Thiruvaramangai Vaanamaamalai (Nanguneri) - Sri Thothatrinatha Perumal Temple,"<h3>Thiruvaramangai Vaanamaamalai (Nanguneri) - Sri Thothatrinatha Perumal Temple</h3><div><b>Location:</b> Nanguneri, Tirunelveli, Tamil Nadu, India</div><div><b>Cluster:</b> Pandiya Nadu / Tirunelveli–Kanyakumari Cluster</div>",,,
82,Thirukkurungudi - Sri Nindra Nambi Perumal Temple,Thirukkurungudi,Thirukkurungudi,Thirukkurungudi,Tirunelveli,Tamil Nadu,India,8.436165932,77.56509025,Pandiya Nadu,Tirunelveli–Kanyakumari Cluster,blue,temple,Thirukkurungudi • Thirukkurungudi,Thirukkurungudi - Sri Nindra Nambi Perumal Temple,"<h3>Thirukkurungudi - Sri Nindra Nambi Perumal Temple</h3><div><b>Location:</b> Thirukkurungudi, Tirunelveli, Tamil Nadu, India</div><div><b>Cluster:</b> Pandiya Nadu / Tirunelveli–Kanyakumari Cluster</div>",,,
83,Thiruvanparisaaram (Nagercoil) - Sri Kuralappa Perumal Temple,Thiruvanparisaaram,Thiruvattar Area (Thiruparisaram),Nagercoil,Kanyakumari,Tamil Nadu,India,8.222375152,77.45108467,Pandiya Nadu,Tirunelveli–Kanyakumari Cluster,blue,temple,Thiruvattar Area (Thiruparisaram) • Nagercoil,Thiruvanparisaaram (Nagercoil) - Sri Kuralappa Perumal Temple,"<h3>Thiruvanparisaaram (Nagercoil) - Sri Kuralappa Perumal Temple</h3><div><b>Location:</b> Nagercoil, Kanyakumari, Tamil Nadu, India</div><div><b>Cluster:</b> Pandiya Nadu / Tirunelveli–Kanyakumari Cluster</div>",,,
84,Thiru Vattaaru (Marthandam) - Sri Aadhikesava Perumal Temple,Thiru Vattaaru,Thiruvattaru,Marthandam,Kanyakumari,Tamil Nadu,India,8.329980483,77.26609975,Pandiya Nadu,Tirunelveli–Kanyakumari Cluster,blue,temple,Thiruvattaru • Marthandam,Thiru Vattaaru (Marthandam) - Sri Aadhikesava Perumal Temple,"<h3>Thiru Vattaaru (Marthandam) - Sri Aadhikesava Perumal Temple</h3><div><b>Location:</b> Marthandam, Kanyakumari, Tamil Nadu, India</div><div><b>Cluster:</b> Pandiya Nadu / Tirunelveli–Kanyakumari Cluster</div>",,,
85,Thiruvananthapuram - Sri Anantha Padmanabhaswamy Temple,Thiruvananthapuram,Padmanabhaswamy,Thiruvananthapuram,Thiruvananthapuram,Kerala,India,8.482947207,76.94357215,Malai Nadu (Kerala),Kerala Cluster,purple,temple,Padmanabhaswamy • Thiruvananthapuram,Thiruvananthapuram - Sri Anantha Padmanabhaswamy Temple,"<h3>Thiruvananthapuram - Sri Anantha Padmanabhaswamy Temple</h3><div><b>Location:</b> Thiruvananthapuram, Thiruvananthapuram, Kerala, India</div><div><b>Cluster:</b> Malai Nadu (Kerala) / Kerala Cluster</div>",,,
86,Thirupuliyoor (Chengannur) - Sri Maayapiran Perumal Temple,Thirupuliyoor,Puliyoor,Chengannur,Alappuzha,Kerala,India,9.302134658,76.58568709,Malai Nadu (Kerala),Kerala Cluster,purple,temple,Puliyoor • Chengannur,Thirupuliyoor (Chengannur) - Sri Maayapiran Perumal Temple,"<h3>Thirupuliyoor (Chengannur) - Sri Maayapiran Perumal Temple</h3><div><b>Location:</b> Chengannur, Alappuzha, Kerala, India</div><div><b>Cluster:</b> Malai Nadu (Kerala) / Kerala Cluster</div>",,,
87,Thirucchenkundroor (Chengannur) - Sri Imayavarappa Perumal Temple,Thirucchenkundroor,Thiruchittattukara/Chennithala belt,Chengannur,Alappuzha,Kerala,India,9.326746844,76.60428251,Malai Nadu (Kerala),Kerala Cluster,purple,temple,Thiruchittattukara/Chennithala belt • Chengannur,Thirucchenkundroor (Chengannur) - Sri Imayavarappa Perumal Temple,"<h3>Thirucchenkundroor (Chengannur) - Sri Imayavarappa Perumal Temple</h3><div><b>Location:</b> Chengannur, Alappuzha, Kerala, India</div><div><b>Cluster:</b> Malai Nadu (Kerala) / Kerala Cluster</div>",,,
88,Thiruvaaran Vilai (Aranmulla Temple) - Sri Parthasarathy Perumal Temple,Thiruvaaran Vilai,Aranmula Parthasarathy,Aranmula,Pathanamthitta,Kerala,India,9.32838686,76.68775299,Malai Nadu (Kerala),Kerala Cluster,purple,temple,Aranmula Parthasarathy • Aranmula,Thiruvaaran Vilai (Aranmulla Temple) - Sri Parthasarathy Perumal Temple,"<h3>Thiruvaaran Vilai (Aranmulla Temple) - Sri Parthasarathy Perumal Temple</h3><div><b>Location:</b> Aranmula, Pathanamthitta, Kerala, India</div><div><b>Cluster:</b> Malai Nadu (Kerala) / Kerala Cluster</div>",,,
89,Thiruvanvandoor (Chengannur) - Sri Paambanaiyappa Perumal Temple,Thiruvanvandoor,Vanamamalai Appan (local),Chengannur,Alappuzha,Kerala,India,9.344047492,76.58062917,Malai Nadu (Kerala),Kerala Cluster,purple,temple,Vanamamalai Appan (local) • Chengannur,Thiruvanvandoor (Chengannur) - Sri Paambanaiyappa Perumal Temple,"<h3>Thiruvanvandoor (Chengannur) - Sri Paambanaiyappa Perumal Temple</h3><div><b>Location:</b> Chengannur, Alappuzha, Kerala, India</div><div><b>Cluster:</b> Malai Nadu (Kerala) / Kerala Cluster</div>",,,
90,Thiruvalvaazh (Thiruvalla) - Sri Kolapira Perumal Temple,Thiruvalvaazh,Thiruvalla,Thiruvalla,Pathanamthitta,Kerala,India,9.376340558,76.56291767,Malai Nadu (Kerala),Kerala Cluster,purple,temple,Thiruvalla • Thiruvalla,Thiruvalvaazh (Thiruvalla) - Sri Kolapira Perumal Temple,"<h3>Thiruvalvaazh (Thiruvalla) - Sri Kolapira Perumal Temple</h3><div><b>Location:</b> Thiruvalla, Pathanamthitta, Kerala, India</div><div><b>Cluster:</b> Malai Nadu (Kerala) / Kerala Cluster</div>",,,
91,Thirukkadithaanam (Changanassery) - Sri Athpudha Narayana Perumal Temple,Thirukkadithaanam,Kadithanam,Changanassery,Kottayam,Kerala,India,9.442099559,76.564396,Malai Nadu (Kerala),Kerala Cluster,purple,temple,Kadithanam • Changanassery,Thirukkadithaanam (Changanassery) - Sri Athpudha Narayana Perumal Temple,"<h3>Thirukkadithaanam (Changanassery) - Sri Athpudha Narayana Perumal Temple</h3><div><b>Location:</b> Changanassery, Kottayam, Kerala, India</div><div><b>Cluster:</b> Malai Nadu (Kerala) / Kerala Cluster</div>",,,
92,"Thirukkaatkarai (Near Ernakulam, Edapally) - Sri Kaatkarai Appa Perumal Temple",Thirukkaatkarai,Trikkakara (Vamana),Edapally/Ernakulam,Ernakulam,Kerala,India,10.03560343,76.3299139,Malai Nadu (Kerala),Kerala Cluster,purple,temple,Trikkakara (Vamana) • Edapally/Ernakulam,"Thirukkaatkarai (Near Ernakulam, Edapally) - Sri Kaatkarai Appa Perumal Temple","<h3>Thirukkaatkarai (Near Ernakulam, Edapally) - Sri Kaatkarai Appa Perumal Temple</h3><div><b>Location:</b> Edapally/Ernakulam, Ernakulam, Kerala, India</div><div><b>Cluster:</b> Malai Nadu (Kerala) / Kerala Cluster</div>",,,
93,Thirumoozhikkalam (Near Cochin Int Airport) - Sri Moozhikkalathaan Perumal Temple,Thirumoozhikkalam,Thirumoozhikulam,Aluva,Ernakulam,Kerala,India,10.04067253,76.331081,Malai Nadu (Kerala),Kerala Cluster,purple,temple,Thirumoozhikulam • Aluva,Thirumoozhikkalam (Near Cochin Int Airport) - Sri Moozhikkalathaan Perumal Temple,"<h3>Thirumoozhikkalam (Near Cochin Int Airport) - Sri Moozhikkalathaan Perumal Temple</h3><div><b>Location:</b> Aluva, Ernakulam, Kerala, India</div><div><b>Cluster:</b> Malai Nadu (Kerala) / Kerala Cluster</div>",,,
94,"Thiruvithuvakkodu (Near Thrissur, Pattambi) - Sri Uyyavantha Perumal Temple",Thiruvithuvakkodu,Thiruvithuvaankodu,Pattambi,Palakkad,Kerala,India,10.7832459,76.18452181,Malai Nadu (Kerala),Kerala Cluster,purple,temple,Thiruvithuvaankodu • Pattambi,"Thiruvithuvakkodu (Near Thrissur, Pattambi) - Sri Uyyavantha Perumal Temple","<h3>Thiruvithuvakkodu (Near Thrissur, Pattambi) - Sri Uyyavantha Perumal Temple</h3><div><b>Location:</b> Pattambi, Palakkad, Kerala, India</div><div><b>Cluster:</b> Malai Nadu (Kerala) / Kerala Cluster</div>",,,
95,Thiru Naavaay (Near Kuttippuram) - Sri Naavaay Mugundha Perumal Temple,Thiru Naavaay,Tirunavaya,Kuttippuram,Malappuram,Kerala,India,10.86395239,75.98161961,Malai Nadu (Kerala),Kerala Cluster,purple,temple,Tirunavaya • Kuttippuram,Thiru Naavaay (Near Kuttippuram) - Sri Naavaay Mugundha Perumal Temple,"<h3>Thiru Naavaay (Near Kuttippuram) - Sri Naavaay Mugundha Perumal Temple</h3><div><b>Location:</b> Kuttippuram, Malappuram, Kerala, India</div><div><b>Cluster:</b> Malai Nadu (Kerala) / Kerala Cluster</div>",,,
96,"Tirupathi (Tirumala, Andhra Pradesh) - Sri Srinivasa Perumal Temple",Tirumala,Tirupati,Tirupati,Tirupati,Andhra Pradesh,India,13.8401521,79.33176014,Vada Nadu (South Deccan),Andhra–Karnataka Cluster,teal,temple,Tirupati • Tirupati,"Tirupathi (Tirumala, Andhra Pradesh) - Sri Srinivasa Perumal Temple","<h3>Tirupathi (Tirumala, Andhra Pradesh) - Sri Srinivasa Perumal Temple</h3><div><b>Location:</b> Tirupati, Tirupati, Andhra Pradesh, India</div><div><b>Cluster:</b> Vada Nadu (South Deccan) / Andhra–Karnataka Cluster</div>",,,
97,"Thiru Singavel Kundram (Ahobilam, Andhra Pradesh) - Sri Nava Narasimhar Temple",Ahobilam,Ahobilam,Allagadda/Ahobilam,Nandyal,Andhra Pradesh,India,15.13687997,78.67174149,Vada Nadu (South Deccan),Andhra–Karnataka Cluster,teal,temple,Ahobilam • Allagadda/Ahobilam,"Thiru Singavel Kundram (Ahobilam, Andhra Pradesh) - Sri Nava Narasimhar Temple","<h3>Thiru Singavel Kundram (Ahobilam, Andhra Pradesh) - Sri Nava Narasimhar Temple</h3><div><b>Location:</b> Allagadda/Ahobilam, Nandyal, Andhra Pradesh, India</div><div><b>Cluster:</b> Vada Nadu (South Deccan) / Andhra–Karnataka Cluster</div>",,,
98,"Thiru Dwaraka (Dwaraka, Gujarat) - Sri Kalyana Narayana Perumal Temple",Dwarka,Dwarka,Dwarka,Devbhumi Dwarka,Gujarat,India,22.23782117,68.96741537,Vada Nadu (North India),North India Cluster,pink,temple,Dwarka • Dwarka,"Thiru Dwaraka (Dwaraka, Gujarat) - Sri Kalyana Narayana Perumal Temple","<h3>Thiru Dwaraka (Dwaraka, Gujarat) - Sri Kalyana Narayana Perumal Temple</h3><div><b>Location:</b> Dwarka, Devbhumi Dwarka, Gujarat, India</div><div><b>Cluster:</b> Vada Nadu (North India) / North India Cluster</div>",,,
99,Thiru Ayodhi - Sri Ramar Temple,Ayodhya,Ayodhya,Ayodhya,Ayodhya,Uttar Pradesh,India,26.78860931,82.20090292,Vada Nadu (North India),North India Cluster,pink,temple,Ayodhya • Ayodhya,Thiru Ayodhi - Sri Ramar Temple,"<h3>Thiru Ayodhi - Sri Ramar Temple</h3><div><b>Location:</b> Ayodhya, Ayodhya, Uttar Pradesh, India</div><div><b>Cluster:</b> Vada Nadu (North India) / North India Cluster</div>",,,
100,Thiru Naimisaranyam - Sri Devaraja Perumal Temple,Naimisaranyam,Nimsar,Sitapur,Sitapur,Uttar Pradesh,India,27.35010939,80.48340505,Vada Nadu (North India),North India Cluster,pink,temple,Nimsar • Sitapur,Thiru Naimisaranyam - Sri Devaraja Perumal Temple,"<h3>Thiru Naimisaranyam - Sri Devaraja Perumal Temple</h3><div><b>Location:</b> Sitapur, Sitapur, Uttar Pradesh, India</div><div><b>Cluster:</b> Vada Nadu (North India) / North India Cluster</div>",,,
101,Thiruvaaipadi (Aayarpadi) - Sri Navamohana Krishna Perumal Temple,Aayarpadi,Gokul/Vrindavan region,Mathura,Mathura,Uttar Pradesh,India,27.35009012,80.48330819,Vada Nadu (North India),North India Cluster,pink,temple,Gokul/Vrindavan region • Mathura,Thiruvaaipadi (Aayarpadi) - Sri Navamohana Krishna Perumal Temple,"<h3>Thiruvaaipadi (Aayarpadi) - Sri Navamohana Krishna Perumal Temple</h3><div><b>Location:</b> Mathura, Mathura, Uttar Pradesh, India</div><div><b>Cluster:</b> Vada Nadu (North India) / North India Cluster</div>",,,
102,Thiru Vadamathura (Govardhanesan) - Sri Govardhana Nesa Perumal Temple,Vadamathura,Govardhan,Mathura,Mathura,Uttar Pradesh,India,27.35009012,80.48337256,Vada Nadu (North India),North India Cluster,pink,temple,Govardhan • Mathura,Thiru Vadamathura (Govardhanesan) - Sri Govardhana Nesa Perumal Temple,"<h3>Thiru Vadamathura (Govardhanesan) - Sri Govardhana Nesa Perumal Temple</h3><div><b>Location:</b> Mathura, Mathura, Uttar Pradesh, India</div><div><b>Cluster:</b> Vada Nadu (North India) / North India Cluster</div>",,,
103,Thirukkandam (Devaprayag) - Sri Neelamega Perumal Temple,Thirukkandam,Devaprayag,Devaprayag,Tehri Garhwal,Uttarakhand,India,30.1463147,78.59865221,Vada Nadu (North India),North India Cluster,pink,temple,Devaprayag • Devaprayag,Thirukkandam (Devaprayag) - Sri Neelamega Perumal Temple,"<h3>Thirukkandam (Devaprayag) - Sri Neelamega Perumal Temple</h3><div><b>Location:</b> Devaprayag, Tehri Garhwal, Uttarakhand, India</div><div><b>Cluster:</b> Vada Nadu (North India) / North India Cluster</div>",,,
104,Thiruppirudhi (Joshimutt) - Sri Paramapurusha Perumal Temple,Thiruppirudhi,Joshimath,Joshimath,Chamoli,Uttarakhand,India,30.55640574,79.56646722,Vada Nadu (North India),North India Cluster,pink,temple,Joshimath • Joshimath,Thiruppirudhi (Joshimutt) - Sri Paramapurusha Perumal Temple,"<h3>Thiruppirudhi (Joshimutt) - Sri Paramapurusha Perumal Temple</h3><div><b>Location:</b> Joshimath, Chamoli, Uttarakhand, India</div><div><b>Cluster:</b> Vada Nadu (North India) / North India Cluster</div>",,,
105,Thiruvadhari Ashramam (Badrinath) - Sri Badri Narayana Perumal Temple,Thiruvadhari Ashramam,Badrinath,Badrinath,Chamoli,Uttarakhand,India,30.74489772,79.49127755,Vada Nadu (North India),North India Cluster,pink,temple,Badrinath • Badrinath,Thiruvadhari Ashramam (Badrinath) - Sri Badri Narayana Perumal Temple,"<h3>Thiruvadhari Ashramam (Badrinath) - Sri Badri Narayana Perumal Temple</h3><div><b>Location:</b> Badrinath, Chamoli, Uttarakhand, India</div><div><b>Cluster:</b> Vada Nadu (North India) / North India Cluster</div>",,,
106,Thiru Salagramam (Mukthinath) - Sri Moorthy Perumal Temple,Thiru Salagramam,Muktinath,Muktinath,Mustang,Gandaki Province,Nepal,28.81740379,83.87184727,Vada Nadu (North India),North India Cluster,pink,temple,Muktinath • Muktinath,Thiru Salagramam (Mukthinath) - Sri Moorthy Perumal Temple,"<h3>Thiru Salagramam (Mukthinath) - Sri Moorthy Perumal Temple</h3><div><b>Location:</b> Muktinath, Mustang, Gandaki Province, Nepal</div><div><b>Cluster:</b> Vada Nadu (North India) / North India Cluster</div>",,,
107,ThirupPaarkadal (Vyugam) - Celestial Abode,Thiruparkadal,Parkadal,,,,,,,Vinnulagam (Celestial),Vinnulagam,gray,temple,Parkadal,ThirupPaarkadal (Vyugam) - Celestial Abode,<h3>ThirupPaarkadal (Vyugam) - Celestial Abode</h3><div><b>Cluster:</b> Vinnulagam (Celestial) / Vinnulagam</div>,,,
108,ThirupParamapadham (Parathuvam) - Celestial Abode,Thiruparamapadham,Paramapadham,,,,,,,Vinnulagam (Celestial),Vinnulagam,gray,temple,Paramapadham,ThirupParamapadham (Parathuvam) - Celestial Abode,<h3>ThirupParamapadham (Parathuvam) - Celestial Abode</h3><div><b>Cluster:</b> Vinnulagam (Celestial) / Vinnulagam</div>,,,
